OBJECT_NAME,OBJECT_ID,EPOCH,MEAN_MOTION,ECCENTRICITY,INCLINATION,RA_OF_ASC_NODE,ARG_OF_PERICENTER,MEAN_ANOMALY,EPHEMERIS_TYPE,CLASSIFICATION_TYPE,NORAD_CAT_ID,ELEMENT_SET_NO,REV_AT_EPOCH,BSTAR,MEAN_MOTION_DOT,MEAN_MOTION_DDOT
COSMOS 2058,1990-010A,2026-06-08T06:24:58.405824,15.11953049,.00103417,82.4663,318.1527,30.7469,329.4365,0,U,20465,999,95592,.18583958E-3,.3218E-4,0
SL-14 R/B,1990-010B,2026-06-08T03:07:54.263424,14.83640791,.0019896,82.5017,182.4504,6.5086,353.6384,0,U,20466,999,94189,.44953198E-4,.396E-5,0
SL-14 R/B,1990-018B,2026-06-08T05:38:50.144640,14.82210385,.001687,82.5203,138.4749,149.3983,210.8219,0,U,20511,999,93599,.478701E-4,.406E-5,0
HST,1990-037B,2026-06-07T07:09:32.201568,15.30642118,.0001938,28.4712,148.1547,44.7656,315.3096,0,U,20580,999,78705,.18954E-3,.601E-4,0
SL-16 R/B,1990-046B,2026-06-08T04:22:43.541760,14.15021434,.0014077,70.9982,107.8591,175.3297,184.7960,0,U,20625,999,86119,.18106775E-3,.303E-5,0
COSMOS 2084,1990-055A,2026-06-07T23:10:10.499520,15.06079402,.00055478,62.7910,27.5656,261.7959,98.2513,0,U,20663,999,94991,.17716E-3,.24E-4,0
SL-6 R/B(2),1990-055D,2026-06-08T03:21:31.293792,15.03973233,.00392226,62.7839,306.1624,3.9186,356.2213,0,U,20666,999,95179,.14451245E-3,.1831E-4,0
SL-8 R/B,1990-078B,2026-06-08T01:48:12.230784,14.91976988,.03528309,82.9015,169.8750,69.1271,294.7345,0,U,20775,999,82276,.47562666E-3,.16899E-3,0
SL-8 R/B,1991-006B,2026-06-08T05:05:30.344928,13.77505212,.00232898,82.9419,102.7101,138.5281,334.3740,0,U,21088,999,77653,.33355725E-4,.49E-6,0
OKEAN-3,1991-039A,2026-06-08T05:32:53.760192,15.05287176,.00146065,82.5162,249.0658,29.3476,330.8568,0,U,21397,999,87865,.14090557E-3,.2047E-4,0
COSMOS 2151,1991-042A,2026-06-08T06:09:39.294720,15.00413167,.00137248,82.4961,356.3003,110.6620,249.6078,0,U,21422,999,87677,.10845721E-3,.1392E-4,0
SL-14 R/B,1991-042B,2026-06-08T07:22:46.456896,14.81896902,.00157135,82.4922,135.2228,306.8226,53.1546,0,U,21423,999,86649,.4849318E-4,.407E-5,0
ERS-1,1991-050A,2026-06-08T01:25:24.949920,14.39511565,.00307994,98.7799,179.5343,295.1450,64.6543,0,U,21574,999,82873,.10641645E-3,.287E-5,0
ARIANE 40 R/B,1991-050F,2026-06-08T02:29:28.733856,14.42952012,.00038516,98.1879,207.8742,141.2771,218.8697,0,U,21610,999,83203,.10825775E-3,.321E-5,0
INTERCOSMOS 25,1991-086A,2026-06-07T22:48:42.167520,12.12185586,.1484364,82.6055,255.3989,282.3374,61.5916,0,U,21819,999,50762,.13078614E-3,.657E-5,0
SL-8 R/B,1992-008B,2026-06-08T06:09:41.422752,13.75974418,.00333869,82.9268,200.4274,240.4289,192.2026,0,U,21876,999,72187,.54048926E-4,.68E-6,0
SL-8 R/B,1992-020B,2026-06-08T06:17:41.112960,13.75548009,.00302116,82.9304,86.4861,46.7574,62.2335,0,U,21938,999,71358,.44155223E-4,.58E-6,0
USA 81,1992-023A,2026-06-08T04:38:41.003232,14.32395833,.00027366,85.0077,79.1978,92.7107,267.4399,0,U,21949,999,10774,.58808293E-4,.179E-5,0
COSMOS 2219,1992-076A,2026-06-08T04:57:58.924800,14.14095542,.00161736,71.0576,188.8456,58.8110,301.4595,0,U,22219,999,73117,.7952075E-5,-.32E-6,0
SL-16 R/B,1992-076B,2026-06-08T00:04:39.515232,14.16872143,.00144505,71.0007,358.1286,310.6399,161.6193,0,U,22220,999,73462,-.76975134E-4,-.203E-5,0
COSMOS 2221,1992-080A,2026-06-08T02:41:55.935744,14.96511725,.00126723,82.5034,192.4589,245.6547,114.3353,0,U,22236,999,79431,.13681037E-3,.1582E-4,0
SL-16 R/B,1992-093B,2026-06-08T04:43:19.826400,14.15464822,.00044539,71.0201,174.2650,201.1627,158.9313,0,U,22285,999,72596,-.38632122E-4,-.123E-5,0
COSMOS 2228,1992-094A,2026-06-08T04:49:34.985568,14.97554953,.00177719,82.5170,150.6502,3.2404,356.8930,0,U,22286,999,78960,.18273328E-3,.2165E-4,0
SL-16 R/B,1993-016B,2026-06-08T00:49:42.681792,14.15308871,.00108346,71.0079,25.4318,196.7781,163.2985,0,U,22566,999,71495,.69830065E-4,.88E-6,0
COSMOS 2242,1993-024A,2026-06-08T03:45:18.105120,14.96876951,.00162566,82.5179,180.1828,7.2600,352.8854,0,U,22626,999,79392,.1432362E-3,.1673E-4,0
SL-16 R/B,1993-059B,2026-06-08T05:51:11.647584,14.17244414,.0014994,70.9882,180.1637,69.5981,290.6751,0,U,22803,999,69236,.12843004E-3,.212E-5,0
ARIANE 40 R/B,1993-061H,2026-06-08T04:44:28.615488,14.32904219,.00110332,98.4820,226.2411,22.7936,337.3736,0,U,22830,999,70706,.89971421E-4,.203E-5,0
COSMOS 2278,1994-023A,2026-06-07T21:52:34.272192,14.14392657,.00106032,71.0541,346.3332,253.7139,106.2817,0,U,23087,999,65756,.22702733E-3,.388E-5,0
SL-16 R/B,1994-023B,2026-06-07T22:01:03.000576,14.15019357,.00033572,70.9995,241.3984,196.3267,163.7748,0,U,23088,999,65885,.11707171E-3,.179E-5,0
SL-16 R/B,1994-074B,2026-06-08T02:02:24.103680,14.79494909,.00051806,97.6994,186.1848,291.9630,131.0433,0,U,23343,999,70061,.6874478E-4,.465E-5,0
