COSMOS 2058             
1 20465U 90010A   26159.26734266  .00003218  00000+0  18584-3 0  9998
2 20465  82.4663 318.1527 0010341  30.7469 329.4365 15.11953049955923
SL-14 R/B               
1 20466U 90010B   26159.13048916  .00000396  00000+0  44953-4 0  9999
2 20466  82.5017 182.4504 0019896   6.5086 353.6384 14.83640791941891
SL-14 R/B               
1 20511U 90018B   26159.23530260  .00000406  00000+0  47870-4 0  9990
2 20511  82.5203 138.4749 0016870 149.3983 210.8219 14.82210385935998
HST                     
1 20580U 90037B   26158.29828937  .00006010  00000+0  18954-3 0  9990
2 20580  28.4712 148.1547 0001938  44.7656 315.3096 15.30642118787059
SL-16 R/B               
1 20625U 90046B   26159.18244840  .00000303  00000+0  18107-3 0  9993
2 20625  70.9982 107.8591 0014077 175.3297 184.7960 14.15021434861191
COSMOS 2084             
1 20663U 90055A   26158.96539930  .00002400  00000+0  17716-3 0  9992
2 20663  62.7910  27.5656 0005547 261.7959  98.2513 15.06079402949919
SL-6 R/B(2)             
1 20666U 90055D   26159.13994553  .00001831  00000+0  14451-3 0  9991
2 20666  62.7839 306.1624 0039222   3.9186 356.2213 15.03973233951793
SL-8 R/B                
1 20775U 90078B   26159.07514156  .00016899  00000+0  47563-3 0  9997
2 20775  82.9015 169.8750 0352830  69.1271 294.7345 14.91976988822762
SL-8 R/B                
1 21088U 91006B   26159.21215677  .00000049  00000+0  33356-4 0  9995
2 21088  82.9419 102.7101 0023289 138.5281 334.3740 13.77505212776533
OKEAN-3                 
1 21397U 91039A   26159.23117778  .00002047  00000+0  14091-3 0  9993
2 21397  82.5162 249.0658 0014606  29.3476 330.8568 15.05287176878659
COSMOS 2151             
1 21422U 91042A   26159.25670480  .00001392  00000+0  10846-3 0  9998
2 21422  82.4961 356.3003 0013724 110.6620 249.6078 15.00413167876775
SL-14 R/B               
1 21423U 91042B   26159.30748214  .00000407  00000+0  48493-4 0  9992
2 21423  82.4922 135.2228 0015713 306.8226  53.1546 14.81896902866493
ERS-1                   
1 21574U 91050A   26159.05931655  .00000287  00000+0  10642-3 0  9993
2 21574  98.7799 179.5343 0030799 295.1450  64.6543 14.39511565828732
ARIANE 40 R/B           
1 21610U 91050F   26159.10380479  .00000321  00000+0  10826-3 0  9995
2 21610  98.1879 207.8742 0003851 141.2771 218.8697 14.42952012832031
INTERCOSMOS 25          
1 21819U 91086A   26158.95048805  .00000657  00000+0  13079-3 0  9996
2 21819  82.6055 255.3989 1484364 282.3374  61.5916 12.12185586507626
SL-8 R/B                
1 21876U 92008B   26159.25672943  .00000068  00000+0  54049-4 0  9993
2 21876  82.9268 200.4274 0033386 240.4289 192.2026 13.75974418721878
SL-8 R/B                
1 21938U 92020B   26159.26228140  .00000058  00000+0  44155-4 0  9999
2 21938  82.9304  86.4861 0030211  46.7574  62.2335 13.75548009713581
USA 81                  
1 21949U 92023A   26159.19353013  .00000179  00000+0  58808-4 0  9998
2 21949  85.0077  79.1978 0002736  92.7107 267.4399 14.32395833107749
COSMOS 2219             
1 22219U 92076A   26159.20693200 -.00000032  00000+0  79521-5 0  9999
2 22219  71.0576 188.8456 0016173  58.8110 301.4595 14.14095542731176
SL-16 R/B               
1 22220U 92076B   26159.00323513 -.00000203  00000+0 -76975-4 0  9996
2 22220  71.0007 358.1286 0014450 310.6399 161.6193 14.16872143734629
COSMOS 2221             
1 22236U 92080A   26159.11245296  .00001582  00000+0  13681-3 0  9994
2 22236  82.5034 192.4589 0012672 245.6547 114.3353 14.96511725794313
SL-16 R/B               
1 22285U 92093B   26159.19675725 -.00000123  00000+0 -38632-4 0  9990
2 22285  71.0201 174.2650 0004453 201.1627 158.9313 14.15464822725968
COSMOS 2228             
1 22286U 92094A   26159.20109937  .00002165  00000+0  18273-3 0  9995
2 22286  82.5170 150.6502 0017771   3.2404 356.8930 14.97554953789606
SL-16 R/B               
1 22566U 93016B   26159.03452178  .00000088  00000+0  69830-4 0  9998
2 22566  71.0079  25.4318 0010834 196.7781 163.2985 14.15308871714953
COSMOS 2242             
1 22626U 93024A   26159.15645955  .00001673  00000+0  14324-3 0  9992
2 22626  82.5179 180.1828 0016256   7.2600 352.8854 14.96876951793926
SL-16 R/B               
1 22803U 93059B   26159.24388481  .00000212  00000+0  12843-3 0  9997
2 22803  70.9882 180.1637 0014994  69.5981 290.6751 14.17244414692360
ARIANE 40 R/B           
1 22830U 93061H   26159.19755342  .00000203  00000+0  89971-4 0  9995
2 22830  98.4820 226.2411 0011033  22.7936 337.3736 14.32904219707060
COSMOS 2278             
1 23087U 94023A   26158.91150778  .00000388  00000+0  22703-3 0  9993
2 23087  71.0541 346.3332 0010603 253.7139 106.2817 14.14392657657560
SL-16 R/B               
1 23088U 94023B   26158.91739584  .00000179  00000+0  11707-3 0  9992
2 23088  70.9995 241.3984 0003357 196.3267 163.7748 14.15019357658859
SL-16 R/B               
1 23343U 94074B   26159.08500120  .00000465  00000+0  68745-4 0  9996
2 23343  97.6994 186.1848 0005180 291.9630 131.0433 14.79494909700616
